OBJECT_NAME,OBJECT_ID,EPOCH,MEAN_MOTION,ECCENTRICITY,INCLINATION,RA_OF_ASC_NODE,ARG_OF_PERICENTER,MEAN_ANOMALY,EPHEMERIS_TYPE,CLASSIFICATION_TYPE,NORAD_CAT_ID,ELEMENT_SET_NO,REV_AT_EPOCH,BSTAR,MEAN_MOTION_DOT,MEAN_MOTION_DDOT
STARLINK-31414,2024-064W,2024-04-22T04:00:00.999936,15.5177507,0.0001429,43.0001,7.1092,266.1282,334.948,0,U,59418,999,384,-0.025778,-0.01414129,0
STARLINK-31415,2024-064X,2024-04-22T04:00:00.999936,15.51770818,0.0001495,43.0001,7.1043,269.4701,333.5331,0,U,59419,999,384,-0.025754,-0.0141278,0
STARLINK-31466,2024-064Y,2024-04-22T04:00:00.999936,15.51768012,0.0001551,43.0001,7.0996,272.7775,332.1516,0,U,59420,999,384,-0.02578,-0.01413953,0
STARLINK-11087 [DTC],2024-065A,2024-04-21T22:47:37.981824,15.71334884,6.74e-05,53.1582,248.7418,111.866,248.2431,0,U,59421,999,352,-0.001443,-0.00183641,0
STARLINK-11090 [DTC],2024-065B,2024-04-21T21:12:16.497792,15.71466121,0.0004102,53.1583,249.0423,31.9572,328.1695,0,U,59422,999,352,8.6068e-05,0.00010632,0
STARLINK-11093 [DTC],2024-065C,2024-04-21T21:08:27.884256,15.71507674,0.0002711,53.1576,249.0263,68.8577,291.2731,0,U,59423,999,351,-0.00074957,-0.00097399,0
STARLINK-11083 [DTC],2024-065D,2024-04-22T04:42:35.871264,15.72079752,0.0001351,53.156,247.4423,257.1511,102.9357,0,U,59424,999,351,0.010468,0.01573917,0
STARLINK-11085 [DTC],2024-065E,2024-04-22T00:03:53.376768,15.7154742,0.0003243,53.1597,248.3684,30.3028,329.8178,0,U,59425,999,348,0.0043071,0.00605679,0
STARLINK-11089 [DTC],2024-065F,2024-04-22T04:00:00.999936,15.72891606,6.58e-05,53.1707,247.1408,72.7894,342.3062,0,U,59426,999,357,-0.0063489,-0.0080044,0
STARLINK-31757,2024-065G,2024-04-22T04:00:00.999936,15.42666357,0.0001953,53.1606,248.8218,106.4749,191.127,0,U,59427,999,355,0.0066362,0.00305286,0
STARLINK-31752,2024-065H,2024-04-21T23:25:11.676576,15.49378925,0.000131,53.1594,249.643,113.585,246.5297,0,U,59428,999,352,0.0027089,0.00153585,0
STARLINK-31773,2024-065J,2024-04-21T23:24:40.790304,15.49318739,0.0003084,53.1602,249.6376,48.0532,312.0739,0,U,59429,999,352,0.0007463,0.00041296,0
STARLINK-31772,2024-065K,2024-04-21T23:24:09.908352,15.49338856,0.0002879,53.1602,249.6345,44.494,315.63,0,U,59430,999,352,0.00095884,0.00053304,0
STARLINK-31613,2024-065L,2024-04-21T23:23:39.101568,15.49373098,0.000161,53.16,249.6325,77.6507,282.4682,0,U,59431,999,352,0.0014174,0.00079367,0
STARLINK-31780,2024-065M,2024-04-21T23:23:08.512512,15.4937383,0.0001299,53.1604,249.6302,86.4813,273.6345,0,U,59432,999,352,0.0011838,0.000661,0
STARLINK-31740,2024-065N,2024-04-22T04:00:00.999936,15.42831503,0.0001161,53.1607,248.7661,35.0734,290.1861,0,U,59433,999,355,0.00010764,4.379e-05,0
STARLINK-31580,2024-065P,2024-04-22T04:00:00.999936,15.44796318,0.0001551,53.1607,248.7181,22.841,326.6394,0,U,59434,999,355,-0.048263,-0.02042764,0
STARLINK-31696,2024-065Q,2024-04-22T04:00:17.365824,15.49401047,0.0002995,53.16,248.6977,14.4303,345.6791,0,U,59435,999,355,0.0026815,0.00152127,0
STARLINK-31700,2024-065R,2024-04-21T23:21:06.895872,15.49372016,0.0002919,53.1602,249.621,42.0762,318.0471,0,U,59436,999,352,-6.4162e-05,-4.025e-05,0
STARLINK-31706,2024-065S,2024-04-21T23:20:36.872736,15.49347374,0.0001285,53.1602,249.6191,50.4236,309.6887,0,U,59437,999,352,0.00028471,0.00015439,0
STARLINK-31711,2024-065T,2024-04-22T00:00:00.999648,15.49371532,0.0001362,53.1598,249.4853,84.7668,69.9813,0,U,59438,999,352,-0.0016903,-0.00093546,0
STARLINK-31708,2024-065U,2024-04-21T22:00:00.999936,15.49259022,0.0002242,53.1596,249.8762,52.7763,0.9208,0,U,59439,999,354,0.0010644,0.00059096,0
STARLINK-31682,2024-065V,2024-04-21T22:26:20.359104,15.73211139,0.0001138,53.1588,248.6561,161.3921,198.714,0,U,59440,999,353,0.00071704,0.00101287,0
STARLINK-31693,2024-065W,2024-04-21T22:00:00.999936,15.49269463,0.0002091,53.1596,249.8726,47.9907,7.6636,0,U,59441,999,354,0.0006476,0.00035684,0
TSAT-1A,2024-066A,2024-04-21T21:30:47.445408,14.91623261,0.0004968,45.6105,3.3322,180.7923,179.2948,0,U,59442,999,207,0.00073079,7.231e-05,0
HAWK-8A,2024-066B,2024-04-21T21:26:55.418208,14.92093991,0.0004941,45.6108,3.3153,195.2408,164.8322,0,U,59443,999,207,0.0010202,0.00010308,0
CAPELLA-14 (ACADIA),2024-066C,2024-04-20T06:51:11.770560,14.91945942,0.0005471,45.6108,11.5156,193.1921,166.8816,0,U,59444,999,182,0.000655,6.512e-05,0
HAWK-8B,2024-066D,2024-04-22T02:16:50.531520,14.9194743,0.0004862,45.6151,2.2939,192.7513,167.3243,0,U,59445,999,209,0.0011474,0.00011579,0
HAWK-9A,2024-066E,2024-04-21T21:25:20.037792,14.92063045,0.0004309,45.6121,3.3105,200.4906,159.58,0,U,59446,999,206,0.00080497,8.079e-05,0
2024-066F,2024-066F,2024-04-21T21:23:38.110848,14.92241998,0.0004251,45.6112,3.3015,206.654,153.4121,0,U,59447,999,206,0.0013989,0.00014277,0
