STARLINK-31414          
1 59418U 24064W   24113.16667824 -.01414129  00000+0 -25778-1 0  9997
2 59418  43.0001   7.1092 0001429 266.1282 334.9480 15.51775070  3843
STARLINK-31415          
1 59419U 24064X   24113.16667824 -.01412780  00000+0 -25754-1 0  9993
2 59419  43.0001   7.1043 0001495 269.4701 333.5331 15.51770818  3840
STARLINK-31466          
1 59420U 24064Y   24113.16667824 -.01413953  00000+0 -25780-1 0  9997
2 59420  43.0001   7.0996 0001551 272.7775 332.1516 15.51768012  3842
STARLINK-11087 [DTC]    
1 59421U 24065A   24112.94974516 -.00183641  00000+0 -14430-2 0  9991
2 59421  53.1582 248.7418 0000674 111.8660 248.2431 15.71334884  3529
STARLINK-11090 [DTC]    
1 59422U 24065B   24112.88352428  .00010632  00000+0  86068-4 0  9992
2 59422  53.1583 249.0423 0004102  31.9572 328.1695 15.71466121  3525
STARLINK-11093 [DTC]    
1 59423U 24065C   24112.88087829 -.00097399  00000+0 -74957-3 0  9993
2 59423  53.1576 249.0263 0002711  68.8577 291.2731 15.71507674  3517
STARLINK-11083 [DTC]    
1 59424U 24065D   24113.19624851  .01573917  00000+0  10468-1 0  9990
2 59424  53.1560 247.4423 0001351 257.1511 102.9357 15.72079752  3515
STARLINK-11085 [DTC]    
1 59425U 24065E   24113.00270112  .00605679  00000+0  43071-2 0  9995
2 59425  53.1597 248.3684 0003243  30.3028 329.8178 15.71547420  3489
STARLINK-11089 [DTC]    
1 59426U 24065F   24113.16667824 -.00800440  00000+0 -63489-2 0  9993
2 59426  53.1707 247.1408 0000658  72.7894 342.3062 15.72891606  3573
STARLINK-31757          
1 59427U 24065G   24113.16667824  .00305286  00000+0  66362-2 0  9993
2 59427  53.1606 248.8218 0001953 106.4749 191.1270 15.42666357  3551
STARLINK-31752          
1 59428U 24065H   24112.97582959  .00153585  00000+0  27089-2 0  9993
2 59428  53.1594 249.6430 0001310 113.5850 246.5297 15.49378925  3521
STARLINK-31773          
1 59429U 24065J   24112.97547211  .00041296  00000+0  74630-3 0  9996
2 59429  53.1602 249.6376 0003084  48.0532 312.0739 15.49318739  3527
STARLINK-31772          
1 59430U 24065K   24112.97511468  .00053304  00000+0  95884-3 0  9990
2 59430  53.1602 249.6345 0002879  44.4940 315.6300 15.49338856  3524
STARLINK-31613          
1 59431U 24065L   24112.97475812  .00079367  00000+0  14174-2 0  9992
2 59431  53.1600 249.6325 0001610  77.6507 282.4682 15.49373098  3521
STARLINK-31780          
1 59432U 24065M   24112.97440408  .00066100  00000+0  11838-2 0  9991
2 59432  53.1604 249.6302 0001299  86.4813 273.6345 15.49373830  3524
STARLINK-31740          
1 59433U 24065N   24113.16667824  .00004379  00000+0  10764-3 0  9995
2 59433  53.1607 248.7661 0001161  35.0734 290.1861 15.42831503  3555
STARLINK-31580          
1 59434U 24065P   24113.16667824 -.02042764  00000+0 -48263-1 0  9993
2 59434  53.1607 248.7181 0001551  22.8410 326.6394 15.44796318  3553
STARLINK-31696          
1 59435U 24065Q   24113.16686766  .00152127  00000+0  26815-2 0  9991
2 59435  53.1600 248.6977 0002995  14.4303 345.6791 15.49401047  3559
STARLINK-31700          
1 59436U 24065R   24112.97299648 -.00004025  00000+0 -64162-4 0  9993
2 59436  53.1602 249.6210 0002919  42.0762 318.0471 15.49372016  3524
STARLINK-31706          
1 59437U 24065S   24112.97264899  .00015439  00000+0  28471-3 0  9995
2 59437  53.1602 249.6191 0001285  50.4236 309.6887 15.49347374  3523
STARLINK-31711          
1 59438U 24065T   24113.00001157 -.00093546  00000+0 -16903-2 0  9990
2 59438  53.1598 249.4853 0001362  84.7668  69.9813 15.49371532  3524
STARLINK-31708          
1 59439U 24065U   24112.91667824  .00059096  00000+0  10644-2 0  9995
2 59439  53.1596 249.8762 0002242  52.7763   0.9208 15.49259022  3549
STARLINK-31682          
1 59440U 24065V   24112.93495786  .00101287  00000+0  71704-3 0  9990
2 59440  53.1588 248.6561 0001138 161.3921 198.7140 15.73211139  3536
STARLINK-31693          
1 59441U 24065W   24112.91667824  .00035684  00000+0  64760-3 0  9994
2 59441  53.1596 249.8726 0002091  47.9907   7.6636 15.49269463  3549
TSAT-1A                 
1 59442U 24066A   24112.89638247  .00007231  00000+0  73079-3 0  9990
2 59442  45.6105   3.3322 0004968 180.7923 179.2948 14.91623261  2071
HAWK-8A                 
1 59443U 24066B   24112.89369697  .00010308  00000+0  10202-2 0  9998
2 59443  45.6108   3.3153 0004941 195.2408 164.8322 14.92093991  2075
CAPELLA-14 (ACADIA)     
1 59444U 24066C   24111.28555290  .00006512  00000+0  65500-3 0  9991
2 59444  45.6108  11.5156 0005471 193.1921 166.8816 14.91945942  1829
HAWK-8B                 
1 59445U 24066D   24113.09502930  .00011579  00000+0  11474-2 0  9995
2 59445  45.6151   2.2939 0004862 192.7513 167.3243 14.91947430  2093
HAWK-9A                 
1 59446U 24066E   24112.89259303  .00008079  00000+0  80497-3 0  9999
2 59446  45.6121   3.3105 0004309 200.4906 159.5800 14.92063045  2068
2024-066F               
1 59447U 24066F   24112.89141332  .00014277  00000+0  13989-2 0  9990
2 59447  45.6112   3.3015 0004251 206.6540 153.4121 14.92241998  2061
